FALCONSAT-6             
1 43815U 18099BK  26068.72544389  .00005029  00000+0  19477-3 0  9998
2 43815  97.3865 145.8165 0014370 297.0944 181.0714 15.26532865398556
STARLINK-31473          
1 59339U 24057V   26068.31701876 -.00001745  00000+0 -53933-4 0  9997
2 59339  43.0022 189.0471 0001678 284.5895  75.4771 15.27568004109789
