[{"OBJECT_NAME":"FALCONSAT-6","OBJECT_ID":"2018-099BK","EPOCH":"2026-03-09T17:24:38.352096","MEAN_MOTION":15.26532865,"ECCENTRICITY":0.00143698,"INCLINATION":97.3865,"RA_OF_ASC_NODE":145.8165,"ARG_OF_PERICENTER":297.0944,"MEAN_ANOMALY":181.0714,"EPHEMERIS_TYPE":0,"CLASSIFICATION_TYPE":"U","NORAD_CAT_ID":43815,"ELEMENT_SET_NO":999,"REV_AT_EPOCH":39855,"BSTAR":0.00019476898,"MEAN_MOTION_DOT":5.029e-5,"MEAN_MOTION_DDOT":0},{"OBJECT_NAME":"STARLINK-31473","OBJECT_ID":"2024-057V","EPOCH":"2026-03-09T07:36:30.420864","MEAN_MOTION":15.27568004,"ECCENTRICITY":0.00016783,"INCLINATION":43.0022,"RA_OF_ASC_NODE":189.0471,"ARG_OF_PERICENTER":284.5895,"MEAN_ANOMALY":75.4771,"EPHEMERIS_TYPE":0,"CLASSIFICATION_TYPE":"U","NORAD_CAT_ID":59339,"ELEMENT_SET_NO":999,"REV_AT_EPOCH":10978,"BSTAR":-5.3932856e-5,"MEAN_MOTION_DOT":-1.745e-5,"MEAN_MOTION_DDOT":0}]
